STARLINK-32583          
1 61955U 24209S   26162.97155948  .00021056  00000+0  38531-3 0  9994
2 61955  53.1600  60.0776 0001224  99.1268 260.9880 15.49332074 89405
STARLINK-32593          
1 61974U 24210R   26161.85525141  .00024602  00000+0  89961-3 0  9992
2 61974  43.0030  14.0839 0001741 265.4527  94.6126 15.27613900 89120
STARLINK-11343 [DTC]    
1 62017U 24213K   26162.66558785  .00162285  00000+0  13184-2 0  9997
2 62017  53.1576 298.1104 0001727  28.6842 331.4271 15.69708244 89674
STARLINK-32480          
1 62039U 24216H   26162.06365302  .00015193  00000+0  55984-3 0  9999
2 62039  43.0050  89.1979 0000593 185.9781 174.1064 15.27617228 86999
STARLINK-11454 [DTC]    
1 62059U 24217C   26162.74150179  .00166743  00000+0  13532-2 0  9991
2 62059  53.1560 327.7501 0001761  10.5624 349.5431 15.69719056 89940
SUPERVIEW NEO-2 04      
1 62080U 24218C   26160.47964141  .00000227  00000+0  13782-4 0  9999
2 62080  97.4396 167.9264 0001359 113.7747 246.3631 15.19719541 85279
STARLINK-33545          
1 62101U 24220P   26161.92764241  .00021770  00000+0  79782-3 0  9993
2 62101  43.0025  38.7376 0000805 132.3140 227.7781 15.27600190 87287
STARLINK-32626          
1 62123U 24222K   26162.17346863  .00019271  00000+0  70768-3 0  9991
2 62123  43.0105 328.4486 0002129 269.4529  90.6079 15.27594403 87045
STARLINK-32454          
1 62142U 24224D   26161.28139330  .00015505  00000+0  57129-3 0  9996
2 62142  42.9997   2.7274 0000750 287.1694  72.9076 15.27607550 86551
STARLINK-32497          
1 62161U 24224Y   26161.81638231  .00014566  00000+0  53777-3 0  9991
2 62161  42.9997 355.5412 0001981 274.2974  85.7651 15.27581018 86674
STARLINK-32565          
1 62182U 24225V   26162.77948677  .00002631  00000+0  22817-3 0  9990
2 62182  70.0013 287.0287 0002912 269.3084  90.7741 14.98338449 83970
STARLINK-32664          
1 62204U 24229N   26162.91668981  .00172118  00000+0  21738-2 0  9990
2 62204  42.9920  84.4735 0024107 199.5869 181.6366 15.57893428  5923
STARLINK-11492 [DTC]    
1 62224U 24231G   26162.76355881  .00157333  00000+0  12784-2 0  9993
2 62224  53.1574 357.7627 0001614  16.9351 343.1720 15.69720886 88184
QIANFAN-43              
1 62244U 24232H   26162.91688674  .00000079  00000+0  10415-3 0  9996
2 62244  89.0086  23.0640 0016866  38.5761 321.6592 13.51008906 92320
STARLINK-11479 [DTC]    
1 62270U 24237D   26162.35932124  .00168098  00000+0  12864-2 0  9995
2 62270  43.0006 212.0402 0001497 260.2328  99.8371 15.70854337 87787
