[ {"OBJECT_NAME": "STARLINK-32583", "OBJECT_ID": "2024-209S", "EPOCH": "2026-06-11T23:19:02.739072", "MEAN_MOTION": 15.49332074, "ECCENTRICITY": 0.0001224, "INCLINATION": 53.16, "RA_OF_ASC_NODE": 60.0776, "ARG_OF_PERICENTER": 99.1268, "MEAN_ANOMALY": 260.988, "EPHEMERIS_TYPE": 0, "CLASSIFICATION_TYPE": "U", "NORAD_CAT_ID": 61955, "ELEMENT_SET_NO": 999, "REV_AT_EPOCH": 8940, "BSTAR": 0.00038531207, "MEAN_MOTION_DOT": 0.00021056, "MEAN_MOTION_DDOT": 0}, {"OBJECT_NAME": "STARLINK-32593", "OBJECT_ID": "2024-210R", "EPOCH": "2026-06-10T20:31:33.721824", "MEAN_MOTION": 15.276139, "ECCENTRICITY": 0.00017418, "INCLINATION": 43.003, "RA_OF_ASC_NODE": 14.0839, "ARG_OF_PERICENTER": 265.4527, "MEAN_ANOMALY": 94.6126, "EPHEMERIS_TYPE": 0, "CLASSIFICATION_TYPE": "U", "NORAD_CAT_ID": 61974, "ELEMENT_SET_NO": 999, "REV_AT_EPOCH": 8912, "BSTAR": 0.00089961282, "MEAN_MOTION_DOT": 0.00024602, "MEAN_MOTION_DDOT": 0}, {"OBJECT_NAME": "STARLINK-11343 [DTC]", "OBJECT_ID": "2024-213K", "EPOCH": "2026-06-11T15:58:26.790240", "MEAN_MOTION": 15.69708244, "ECCENTRICITY": 0.00017277, "INCLINATION": 53.1576, "RA_OF_ASC_NODE": 298.1104, "ARG_OF_PERICENTER": 28.6842, "MEAN_ANOMALY": 331.4271, "EPHEMERIS_TYPE": 0, "CLASSIFICATION_TYPE": "U", "NORAD_CAT_ID": 62017, "ELEMENT_SET_NO": 999, "REV_AT_EPOCH": 8967, "BSTAR": 0.0013184067, "MEAN_MOTION_DOT": 0.00162285, "MEAN_MOTION_DDOT": 0}, {"OBJECT_NAME": "STARLINK-32480", "OBJECT_ID": "2024-216H", "EPOCH": "2026-06-11T01:31:39.620928", "MEAN_MOTION": 15.27617228, "ECCENTRICITY": 5.933e-05, "INCLINATION": 43.005, "RA_OF_ASC_NODE": 89.1979, "ARG_OF_PERICENTER": 185.9781, "MEAN_ANOMALY": 174.1064, "EPHEMERIS_TYPE": 0, "CLASSIFICATION_TYPE": "U", "NORAD_CAT_ID": 62039, "ELEMENT_SET_NO": 999, "REV_AT_EPOCH": 8699, "BSTAR": 0.0005598391, "MEAN_MOTION_DOT": 0.00015193, "MEAN_MOTION_DDOT": 0}, {"OBJECT_NAME": "STARLINK-11454 [DTC]", "OBJECT_ID": "2024-217C", "EPOCH": "2026-06-11T17:47:45.754656", "MEAN_MOTION": 15.69719056, "ECCENTRICITY": 0.00017616, "INCLINATION": 53.156, "RA_OF_ASC_NODE": 327.7501, "ARG_OF_PERICENTER": 10.5624, "MEAN_ANOMALY": 349.5431, "EPHEMERIS_TYPE": 0, "CLASSIFICATION_TYPE": "U", "NORAD_CAT_ID": 62059, "ELEMENT_SET_NO": 999, "REV_AT_EPOCH": 8994, "BSTAR": 0.0013531502, "MEAN_MOTION_DOT": 0.00166743, "MEAN_MOTION_DDOT": 0}, {"OBJECT_NAME": "SUPERVIEW NEO-2 04", "OBJECT_ID": "2024-218C", "EPOCH": "2026-06-09T11:30:41.017824", "MEAN_MOTION": 15.19719541, "ECCENTRICITY": 0.00013591, "INCLINATION": 97.4396, "RA_OF_ASC_NODE": 167.9264, "ARG_OF_PERICENTER": 113.7747, "MEAN_ANOMALY": 246.3631, "EPHEMERIS_TYPE": 0, "CLASSIFICATION_TYPE": "U", "NORAD_CAT_ID": 62080, "ELEMENT_SET_NO": 999, "REV_AT_EPOCH": 8527, "BSTAR": 1.3781918e-05, "MEAN_MOTION_DOT": 2.27e-06, "MEAN_MOTION_DDOT": 0}, {"OBJECT_NAME": "STARLINK-33545", "OBJECT_ID": "2024-220P", "EPOCH": "2026-06-10T22:15:48.304224", "MEAN_MOTION": 15.2760019, "ECCENTRICITY": 8.059e-05, "INCLINATION": 43.0025, "RA_OF_ASC_NODE": 38.7376, "ARG_OF_PERICENTER": 132.314, "MEAN_ANOMALY": 227.7781, "EPHEMERIS_TYPE": 0, "CLASSIFICATION_TYPE": "U", "NORAD_CAT_ID": 62101, "ELEMENT_SET_NO": 999, "REV_AT_EPOCH": 8728, "BSTAR": 0.00079782378, "MEAN_MOTION_DOT": 0.0002177, "MEAN_MOTION_DDOT": 0}, {"OBJECT_NAME": "STARLINK-32626", "OBJECT_ID": "2024-222K", "EPOCH": "2026-06-11T04:09:47.689632", "MEAN_MOTION": 15.27594403, "ECCENTRICITY": 0.00021292, "INCLINATION": 43.0105, "RA_OF_ASC_NODE": 328.4486, "ARG_OF_PERICENTER": 269.4529, "MEAN_ANOMALY": 90.6079, "EPHEMERIS_TYPE": 0, "CLASSIFICATION_TYPE": "U", "NORAD_CAT_ID": 62123, "ELEMENT_SET_NO": 999, "REV_AT_EPOCH": 8704, "BSTAR": 0.0007076788, "MEAN_MOTION_DOT": 0.00019271, "MEAN_MOTION_DDOT": 0}, {"OBJECT_NAME": "STARLINK-32454", "OBJECT_ID": "2024-224D", "EPOCH": "2026-06-10T06:45:12.381120", "MEAN_MOTION": 15.2760755, "ECCENTRICITY": 7.5e-05, "INCLINATION": 42.9997, "RA_OF_ASC_NODE": 2.7274, "ARG_OF_PERICENTER": 287.1694, "MEAN_ANOMALY": 72.9076, "EPHEMERIS_TYPE": 0, "CLASSIFICATION_TYPE": "U", "NORAD_CAT_ID": 62142, "ELEMENT_SET_NO": 999, "REV_AT_EPOCH": 8655, "BSTAR": 0.00057129, "MEAN_MOTION_DOT": 0.00015505, "MEAN_MOTION_DDOT": 0}, {"OBJECT_NAME": "STARLINK-32497", "OBJECT_ID": "2024-224Y", "EPOCH": "2026-06-10T19:35:35.431584", "MEAN_MOTION": 15.27581018, "ECCENTRICITY": 0.00019818, "INCLINATION": 42.9997, "RA_OF_ASC_NODE": 355.5412, "ARG_OF_PERICENTER": 274.2974, "MEAN_ANOMALY": 85.7651, "EPHEMERIS_TYPE": 0, "CLASSIFICATION_TYPE": "U", "NORAD_CAT_ID": 62161, "ELEMENT_SET_NO": 999, "REV_AT_EPOCH": 8667, "BSTAR": 0.00053776844, "MEAN_MOTION_DOT": 0.00014566, "MEAN_MOTION_DDOT": 0}, {"OBJECT_NAME": "STARLINK-32565", "OBJECT_ID": "2024-225V", "EPOCH": "2026-06-11T18:42:27.656928", "MEAN_MOTION": 14.98338449, "ECCENTRICITY": 0.00029121, "INCLINATION": 70.0013, "RA_OF_ASC_NODE": 287.0287, "ARG_OF_PERICENTER": 269.3084, "MEAN_ANOMALY": 90.7741, "EPHEMERIS_TYPE": 0, "CLASSIFICATION_TYPE": "U", "NORAD_CAT_ID": 62182, "ELEMENT_SET_NO": 999, "REV_AT_EPOCH": 8397, "BSTAR": 0.00022817043, "MEAN_MOTION_DOT": 2.631e-05, "MEAN_MOTION_DDOT": 0}, {"OBJECT_NAME": "STARLINK-32664", "OBJECT_ID": "2024-229N", "EPOCH": "2026-06-11T22:00:01.999584", "MEAN_MOTION": 15.57893428, "ECCENTRICITY": 0.00241076, "INCLINATION": 42.992, "RA_OF_ASC_NODE": 84.4735, "ARG_OF_PERICENTER": 199.5869, "MEAN_ANOMALY": 181.6366, "EPHEMERIS_TYPE": 0, "CLASSIFICATION_TYPE": "U", "NORAD_CAT_ID": 62204, "ELEMENT_SET_NO": 999, "REV_AT_EPOCH": 592, "BSTAR": 0.0021737955, "MEAN_MOTION_DOT": 0.00172118, "MEAN_MOTION_DDOT": 0}, {"OBJECT_NAME": "STARLINK-11492 [DTC]", "OBJECT_ID": "2024-231G", "EPOCH": "2026-06-11T18:19:31.481184", "MEAN_MOTION": 15.69720886, "ECCENTRICITY": 0.00016141, "INCLINATION": 53.1574, "RA_OF_ASC_NODE": 357.7627, "ARG_OF_PERICENTER": 16.9351, "MEAN_ANOMALY": 343.172, "EPHEMERIS_TYPE": 0, "CLASSIFICATION_TYPE": "U", "NORAD_CAT_ID": 62224, "ELEMENT_SET_NO": 999, "REV_AT_EPOCH": 8818, "BSTAR": 0.0012784201, "MEAN_MOTION_DOT": 0.00157333, "MEAN_MOTION_DDOT": 0}, {"OBJECT_NAME": "QIANFAN-43", "OBJECT_ID": "2024-232H", "EPOCH": "2026-06-11T22:00:19.014336", "MEAN_MOTION": 13.51008906, "ECCENTRICITY": 0.0016866, "INCLINATION": 89.0086, "RA_OF_ASC_NODE": 23.064, "ARG_OF_PERICENTER": 38.5761, "MEAN_ANOMALY": 321.6592, "EPHEMERIS_TYPE": 0, "CLASSIFICATION_TYPE": "U", "NORAD_CAT_ID": 62244, "ELEMENT_SET_NO": 999, "REV_AT_EPOCH": 9232, "BSTAR": 0.00010415393, "MEAN_MOTION_DOT": 7.9e-07, "MEAN_MOTION_DDOT": 0}, {"OBJECT_NAME": "STARLINK-11479 [DTC]", "OBJECT_ID": "2024-237D", "EPOCH": "2026-06-11T08:37:25.355136", "MEAN_MOTION": 15.70854337, "ECCENTRICITY": 0.0001497, "INCLINATION": 43.0006, "RA_OF_ASC_NODE": 212.0402, "ARG_OF_PERICENTER": 260.2328, "MEAN_ANOMALY": 99.8371, "EPHEMERIS_TYPE": 0, "CLASSIFICATION_TYPE": "U", "NORAD_CAT_ID": 62270, "ELEMENT_SET_NO": 999, "REV_AT_EPOCH": 8778, "BSTAR": 0.0012864, "MEAN_MOTION_DOT": 0.00168098, "MEAN_MOTION_DDOT": 0}]